PANDORA
1 67395U 80229J   26130.59870370  .00000000  00000-0  37770-3 0    02
2 67395  97.8033 129.8418 0004015 246.2556 209.2393 14.88007751    04
